{
  "type": "FeatureCollection",
  "features": [
    {
      "type": "Feature",
      "properties": {
        "norad_id": 38709,
        "name": "EXACTVIEW-1 (ADS-1B)",
        "group": "resource",
        "lat": -54.34589884708448,
        "lon": 107.33087986574364,
        "alt_km": 810.9167467832303,
        "timestamp": "2025-12-12T05:47:28.428841+00:00",
        "meta_object_name": "EXACTVIEW-1 (ADS-1B)",
        "meta_object_id": "2012-039C",
        "meta_epoch": "2025-12-11T21:37:25.407264",
        "meta_mean_motion": 14.24907615,
        "meta_eccentricity": 0.00107201,
        "meta_inclination": 98.9635,
        "meta_ra_of_asc_node": 94.2734,
        "meta_arg_of_pericenter": 356.6503,
        "meta_mean_anomaly": 3.4602,
        "meta_ephemeris_type": 0,
        "meta_classification_type": "U",
        "meta_norad_cat_id": 38709,
        "meta_element_set_no": 999,
        "meta_rev_at_epoch": 69603,
        "meta_bstar": 0.00013676495,
        "meta_mean_motion_dot": 2.73e-06,
        "meta_mean_motion_ddot": 0,
        "tle_line1": "1 38709U 12039C   25345.90098851  .00000273  00000+0  13676-3 0  9998",
        "tle_line2": "2 38709  98.9635  94.2734 0010720 356.6503   3.4602 14.24907615696034"
      },
      "geometry": {
        "type": "Point",
        "coordinates": [
          107.33087986574364,
          -54.34589884708448
        ]
      }
    },
    {
      "type": "Feature",
      "properties": {
        "norad_id": 38755,
        "name": "SPOT 6",
        "group": "resource",
        "lat": -81.3752508799526,
        "lon": 122.0498426320995,
        "alt_km": 705.8245005230492,
        "timestamp": "2025-12-12T05:47:28.428851+00:00",
        "meta_object_name": "SPOT 6",
        "meta_object_id": "2012-047A",
        "meta_epoch": "2025-12-12T01:15:05.234688",
        "meta_mean_motion": 14.58601949,
        "meta_eccentricity": 0.00011113,
        "meta_inclination": 98.1568,
        "meta_ra_of_asc_node": 50.8488,
        "meta_arg_of_pericenter": 94.6562,
        "meta_mean_anomaly": 265.4764,
        "meta_ephemeris_type": 0,
        "meta_classification_type": "U",
        "meta_norad_cat_id": 38755,
        "meta_element_set_no": 999,
        "meta_rev_at_epoch": 70577,
        "meta_bstar": 0.00014919534,
        "meta_mean_motion_dot": 6.49e-06,
        "meta_mean_motion_ddot": 0,
        "tle_line1": "1 38755U 12047A   25346.05214392  .00000649  00000+0  14920-3 0  9995",
        "tle_line2": "2 38755  98.1568  50.8488 0001111  94.6562 265.4764 14.58601949705773"
      },
      "geometry": {
        "type": "Point",
        "coordinates": [
          122.0498426320995,
          -81.3752508799526
        ]
      }
    },
    {
      "type": "Feature",
      "properties": {
        "norad_id": 39019,
        "name": "PLEIADES 1B",
        "group": "resource",
        "lat": 8.331556772045221,
        "lon": -119.89277408142861,
        "alt_km": 699.7102222752874,
        "timestamp": "2025-12-12T05:47:28.428861+00:00",
        "meta_object_name": "PLEIADES 1B",
        "meta_object_id": "2012-068A",
        "meta_epoch": "2025-12-12T00:04:06.190752",
        "meta_mean_motion": 14.58551428,
        "meta_eccentricity": 0.00012321,
        "meta_inclination": 98.179,
        "meta_ra_of_asc_node": 58.6657,
        "meta_arg_of_pericenter": 80.7799,
        "meta_mean_anomaly": 279.354,
        "meta_ephemeris_type": 0,
        "meta_classification_type": "U",
        "meta_norad_cat_id": 39019,
        "meta_element_set_no": 999,
        "meta_rev_at_epoch": 69356,
        "meta_bstar": 0.00014807583,
        "meta_mean_motion_dot": 6.43e-06,
        "meta_mean_motion_ddot": 0,
        "tle_line1": "1 39019U 12068A   25346.00284943  .00000643  00000+0  14808-3 0  9995",
        "tle_line2": "2 39019  98.1790  58.6657 0001232  80.7799 279.3540 14.58551428693565"
      },
      "geometry": {
        "type": "Point",
        "coordinates": [
          -119.89277408142861,
          8.331556772045221
        ]
      }
    },
    {
      "type": "Feature",
      "properties": {
        "norad_id": 39030,
        "name": "GOKTURK 2",
        "group": "resource",
        "lat": -3.2760103857360097,
        "lon": -171.637507279564,
        "alt_km": 647.8415398139568,
        "timestamp": "2025-12-12T05:47:28.428871+00:00",
        "meta_object_name": "GOKTURK 2",
        "meta_object_id": "2012-073A",
        "meta_epoch": "2025-12-12T00:55:22.088640",
        "meta_mean_motion": 14.75289693,
        "meta_eccentricity": 9.763e-05,
        "meta_inclination": 97.6893,
        "meta_ra_of_asc_node": 187.7266,
        "meta_arg_of_pericenter": 102.0515,
        "meta_mean_anomaly": 258.0805,
        "meta_ephemeris_type": 0,
        "meta_classification_type": "U",
        "meta_norad_cat_id": 39030,
        "meta_element_set_no": 999,
        "meta_rev_at_epoch": 69691,
        "meta_bstar": 0.00016240878,
        "meta_mean_motion_dot": 1.053e-05,
        "meta_mean_motion_ddot": 0,
        "tle_line1": "1 39030U 12073A   25346.03845010  .00001053  00000+0  16241-3 0  9994",
        "tle_line2": "2 39030  97.6893 187.7266 0000976 102.0515 258.0805 14.75289693696915"
      },
      "geometry": {
        "type": "Point",
        "coordinates": [
          -171.637507279564,
          -3.2760103857360097
        ]
      }
    },
    {
      "type": "Feature",
      "properties": {
        "norad_id": 39084,
        "name": "LANDSAT 8",
        "group": "resource",
        "lat": -15.896514956182076,
        "lon": 56.677789925013656,
        "alt_km": 707.4874055046657,
        "timestamp": "2025-12-12T05:47:28.428882+00:00",
        "meta_object_name": "LANDSAT 8",
        "meta_object_id": "2013-008A",
        "meta_epoch": "2025-12-11T23:16:21.057888",
        "meta_mean_motion": 14.57112856,
        "meta_eccentricity": 0.00010922,
        "meta_inclination": 98.2073,
        "meta_ra_of_asc_node": 54.0545,
        "meta_arg_of_pericenter": 88.3191,
        "meta_mean_anomaly": 271.8132,
        "meta_ephemeris_type": 0,
        "meta_classification_type": "U",
        "meta_norad_cat_id": 39084,
        "meta_element_set_no": 999,
        "meta_rev_at_epoch": 67063,
        "meta_bstar": 0.00015777612,
        "meta_mean_motion_dot": 6.66e-06,
        "meta_mean_motion_ddot": 0,
        "tle_line1": "1 39084U 13008A   25345.96968817  .00000666  00000+0  15778-3 0  9997",
        "tle_line2": "2 39084  98.2073  54.0545 0001092  88.3191 271.8132 14.57112856670636"
      },
      "geometry": {
        "type": "Point",
        "coordinates": [
          56.677789925013656,
          -15.896514956182076
        ]
      }
    },
    {
      "type": "Feature",
      "properties": {
        "norad_id": 39086,
        "name": "SARAL",
        "group": "resource",
        "lat": 13.091001896506334,
        "lon": 168.17321294529435,
        "alt_km": 783.8237828162619,
        "timestamp": "2025-12-12T05:47:28.428892+00:00",
        "meta_object_name": "SARAL",
        "meta_object_id": "2013-009A",
        "meta_epoch": "2025-12-11T23:01:31.411776",
        "meta_mean_motion": 14.32756618,
        "meta_eccentricity": 0.00028541,
        "meta_inclination": 98.5503,
        "meta_ra_of_asc_node": 169.9,
        "meta_arg_of_pericenter": 110.0392,
        "meta_mean_anomaly": 250.1099,
        "meta_ephemeris_type": 0,
        "meta_classification_type": "U",
        "meta_norad_cat_id": 39086,
        "meta_element_set_no": 999,
        "meta_rev_at_epoch": 66879,
        "meta_bstar": 9.1109294e-05,
        "meta_mean_motion_dot": 2.04e-06,
        "meta_mean_motion_ddot": 0,
        "tle_line1": "1 39086U 13009A   25345.95939134  .00000204  00000+0  91109-4 0  9990",
        "tle_line2": "2 39086  98.5503 169.9000 0002854 110.0392 250.1099 14.32756618668793"
      },
      "geometry": {
        "type": "Point",
        "coordinates": [
          168.17321294529435,
          13.091001896506334
        ]
      }
    },
    {
      "type": "Feature",
      "properties": {
        "norad_id": 39150,
        "name": "GAOFEN-1",
        "group": "resource",
        "lat": 70.7242775527553,
        "lon": 33.41287633459769,
        "alt_km": 629.5117606122158,
        "timestamp": "2025-12-12T05:47:28.428902+00:00",
        "meta_object_name": "GAOFEN-1",
        "meta_object_id": "2013-018A",
        "meta_epoch": "2025-12-12T00:35:06.107136",
        "meta_mean_motion": 14.76531141,
        "meta_eccentricity": 0.00181753,
        "meta_inclination": 97.9322,
        "meta_ra_of_asc_node": 56.6958,
        "meta_arg_of_pericenter": 145.2018,
        "meta_mean_anomaly": 215.0384,
        "meta_ephemeris_type": 0,
        "meta_classification_type": "U",
        "meta_norad_cat_id": 39150,
        "meta_element_set_no": 999,
        "meta_rev_at_epoch": 68062,
        "meta_bstar": 0.00017872863,
        "meta_mean_motion_dot": 1.198e-05,
        "meta_mean_motion_ddot": 0,
        "tle_line1": "1 39150U 13018A   25346.02437624  .00001198  00000+0  17873-3 0  9996",
        "tle_line2": "2 39150  97.9322  56.6958 0018175 145.2018 215.0384 14.76531141680622"
      },
      "geometry": {
        "type": "Point",
        "coordinates": [
          33.41287633459769,
          70.7242775527553
        ]
      }
    }
  ]
}